ADRAS-J                 
1 58992U 24034A   24168.77595881  .00004092  00000+0  38198-3 0  9993
2 58992  98.2115 141.7768 0045212  51.6028 308.9238 14.94022427 17805
